FM116
1 41189C 15081L   19033.94233404  .00000000  00000-0  00000-0 0 21920
2 41189  47.0023 336.1033 0002294 239.1533 120.9125 14.54758668243398
